{
    "week": 296,
    "satellites": [
        {
            "Name": "GSAT0101 (GALILEO-PFM)",
            "Line1": "1 37846U 11060A   24343.35234903 -.00000063  00000+0  00000+0 0  9999",
            "Line2": "2 37846  57.1201 356.8222 0002639 311.6499  48.3689  1.70475619 81644",
            "SatelliteNumber": "37846",
            "Classification": "U",
            "LaunchYear": "11",
            "LaunchNumber": "060",
            "PieceOfLaunch": "A",
            "EpochYear": "24",
            "EpochDay": 343.35234903,
            "FirstDerivativeMeanMotion": -6.3e-07,
            "SecondDerivativeMeanMotion": "00000+0",
            "BSTAR": "00000+0",
            "SetNumber": "999",
            "Inclination": 57.1201,
            "RAAN": 356.8222,
            "Eccentricity": 0.0002639,
            "ArgumentOfPerigee": 311.6499,
            "MeanAnomaly": 48.3689,
            "MeanMotion": 1.70475619,
            "RevolutionNumber": "8164"
        },
        {
            "Name": "GSAT0102 (GALILEO-FM2)",
            "Line1": "1 37847U 11060B   24343.27132628 -.00000063  00000+0  00000+0 0  9992",
            "Line2": "2 37847  57.1207 356.8247 0004628 304.9247  50.7349  1.70475136 81761",
            "SatelliteNumber": "37847",
            "Classification": "U",
            "LaunchYear": "11",
            "LaunchNumber": "060",
            "PieceOfLaunch": "B",
            "EpochYear": "24",
            "EpochDay": 343.27132628,
            "FirstDerivativeMeanMotion": -6.3e-07,
            "SecondDerivativeMeanMotion": "00000+0",
            "BSTAR": "00000+0",
            "SetNumber": "999",
            "Inclination": 57.1207,
            "RAAN": 356.8247,
            "Eccentricity": 0.0004628,
            "ArgumentOfPerigee": 304.9247,
            "MeanAnomaly": 50.7349,
            "MeanMotion": 1.70475136,
            "RevolutionNumber": "8176"
        },
        {
            "Name": "GSAT0103 (GALILEO-FM3)",
            "Line1": "1 38857U 12055A   24344.56493271  .00000048  00000+0  00000+0 0  9998",
            "Line2": "2 38857  55.4912 116.7845 0002692 251.9669 107.9761  1.70473327 75555",
            "SatelliteNumber": "38857",
            "Classification": "U",
            "LaunchYear": "12",
            "LaunchNumber": "055",
            "PieceOfLaunch": "A",
            "EpochYear": "24",
            "EpochDay": 344.56493271,
            "FirstDerivativeMeanMotion": 4.8e-07,
            "SecondDerivativeMeanMotion": "00000+0",
            "BSTAR": "00000+0",
            "SetNumber": "999",
            "Inclination": 55.4912,
            "RAAN": 116.7845,
            "Eccentricity": 0.0002692,
            "ArgumentOfPerigee": 251.9669,
            "MeanAnomaly": 107.9761,
            "MeanMotion": 1.70473327,
            "RevolutionNumber": "7555"
        },
        {
            "Name": "GSAT0201 (GALILEO 5)",
            "Line1": "1 40128U 14050A   24344.25950094 -.00000071  00000+0  00000+0 0  9993",
            "Line2": "2 40128  49.4771 296.0128 1615931 158.0444 209.7773  1.85519448 68025",
            "SatelliteNumber": "40128",
            "Classification": "U",
            "LaunchYear": "14",
            "LaunchNumber": "050",
            "PieceOfLaunch": "A",
            "EpochYear": "24",
            "EpochDay": 344.25950094,
            "FirstDerivativeMeanMotion": -7.1e-07,
            "SecondDerivativeMeanMotion": "00000+0",
            "BSTAR": "00000+0",
            "SetNumber": "999",
            "Inclination": 49.4771,
            "RAAN": 296.0128,
            "Eccentricity": 0.1615931,
            "ArgumentOfPerigee": 158.0444,
            "MeanAnomaly": 209.7773,
            "MeanMotion": 1.85519448,
            "RevolutionNumber": "6802"
        },
        {
            "Name": "GSAT0202 (GALILEO 6)",
            "Line1": "1 40129U 14050B   24345.05612047 -.00000077  00000+0  00000+0 0  9992",
            "Line2": "2 40129  49.4923 295.0600 1615366 158.8632 208.6832  1.85520191 70178",
            "SatelliteNumber": "40129",
            "Classification": "U",
            "LaunchYear": "14",
            "LaunchNumber": "050",
            "PieceOfLaunch": "B",
            "EpochYear": "24",
            "EpochDay": 345.05612047,
            "FirstDerivativeMeanMotion": -7.7e-07,
            "SecondDerivativeMeanMotion": "00000+0",
            "BSTAR": "00000+0",
            "SetNumber": "999",
            "Inclination": 49.4923,
            "RAAN": 295.06,
            "Eccentricity": 0.1615366,
            "ArgumentOfPerigee": 158.8632,
            "MeanAnomaly": 208.6832,
            "MeanMotion": 1.85520191,
            "RevolutionNumber": "7017"
        },
        {
            "Name": "GSAT0203 (GALILEO 7)",
            "Line1": "1 40544U 15017A   24343.71774008 -.00000065  00000+0  00000+0 0  9991",
            "Line2": "2 40544  56.9147 356.7226 0006143 265.7531  94.2177  1.70475784 59732",
            "SatelliteNumber": "40544",
            "Classification": "U",
            "LaunchYear": "15",
            "LaunchNumber": "017",
            "PieceOfLaunch": "A",
            "EpochYear": "24",
            "EpochDay": 343.71774008,
            "FirstDerivativeMeanMotion": -6.5e-07,
            "SecondDerivativeMeanMotion": "00000+0",
            "BSTAR": "00000+0",
            "SetNumber": "999",
            "Inclination": 56.9147,
            "RAAN": 356.7226,
            "Eccentricity": 0.0006143,
            "ArgumentOfPerigee": 265.7531,
            "MeanAnomaly": 94.2177,
            "MeanMotion": 1.70475784,
            "RevolutionNumber": "5973"
        },
        {
            "Name": "GSAT0204 (GALILEO 8)",
            "Line1": "1 40545U 15017B   24343.97241218 -.00000065  00000+0  00000+0 0  9992",
            "Line2": "2 40545  56.9209 356.7319 0005890 256.1498 103.8257  1.70475434 22782",
            "SatelliteNumber": "40545",
            "Classification": "U",
            "LaunchYear": "15",
            "LaunchNumber": "017",
            "PieceOfLaunch": "B",
            "EpochYear": "24",
            "EpochDay": 343.97241218,
            "FirstDerivativeMeanMotion": -6.5e-07,
            "SecondDerivativeMeanMotion": "00000+0",
            "BSTAR": "00000+0",
            "SetNumber": "999",
            "Inclination": 56.9209,
            "RAAN": 356.7319,
            "Eccentricity": 0.000589,
            "ArgumentOfPerigee": 256.1498,
            "MeanAnomaly": 103.8257,
            "MeanMotion": 1.70475434,
            "RevolutionNumber": "2278"
        },
        {
            "Name": "GSAT0205 (GALILEO 9)",
            "Line1": "1 40889U 15045A   24344.32757483  .00000020  00000+0  00000+0 0  9990",
            "Line2": "2 40889  55.1410 236.9333 0005771  35.2533 324.8561  1.70472875 57559",
            "SatelliteNumber": "40889",
            "Classification": "U",
            "LaunchYear": "15",
            "LaunchNumber": "045",
            "PieceOfLaunch": "A",
            "EpochYear": "24",
            "EpochDay": 344.32757483,
            "FirstDerivativeMeanMotion": 2e-07,
            "SecondDerivativeMeanMotion": "00000+0",
            "BSTAR": "00000+0",
            "SetNumber": "999",
            "Inclination": 55.141,
            "RAAN": 236.9333,
            "Eccentricity": 0.0005771,
            "ArgumentOfPerigee": 35.2533,
            "MeanAnomaly": 324.8561,
            "MeanMotion": 1.70472875,
            "RevolutionNumber": "5755"
        },
        {
            "Name": "GSAT0206 (GALILEO 10)",
            "Line1": "1 40890U 15045B   24343.37503223  .00000021  00000+0  00000+0 0  9998",
            "Line2": "2 40890  55.1404 236.9549 0003684  31.4866 328.6088  1.70472924 57563",
            "SatelliteNumber": "40890",
            "Classification": "U",
            "LaunchYear": "15",
            "LaunchNumber": "045",
            "PieceOfLaunch": "B",
            "EpochYear": "24",
            "EpochDay": 343.37503223,
            "FirstDerivativeMeanMotion": 2.1e-07,
            "SecondDerivativeMeanMotion": "00000+0",
            "BSTAR": "00000+0",
            "SetNumber": "999",
            "Inclination": 55.1404,
            "RAAN": 236.9549,
            "Eccentricity": 0.0003684,
            "ArgumentOfPerigee": 31.4866,
            "MeanAnomaly": 328.6088,
            "MeanMotion": 1.70472924,
            "RevolutionNumber": "5756"
        },
        {
            "Name": "GSAT0209 (GALILEO 12)",
            "Line1": "1 41174U 15079A   24342.95752126  .00000054  00000+0  00000+0 0  9998",
            "Line2": "2 41174  55.5095 116.5394 0001926 341.0041  18.9634  1.70474367 55299",
            "SatelliteNumber": "41174",
            "Classification": "U",
            "LaunchYear": "15",
            "LaunchNumber": "079",
            "PieceOfLaunch": "A",
            "EpochYear": "24",
            "EpochDay": 342.95752126,
            "FirstDerivativeMeanMotion": 5.4e-07,
            "SecondDerivativeMeanMotion": "00000+0",
            "BSTAR": "00000+0",
            "SetNumber": "999",
            "Inclination": 55.5095,
            "RAAN": 116.5394,
            "Eccentricity": 0.0001926,
            "ArgumentOfPerigee": 341.0041,
            "MeanAnomaly": 18.9634,
            "MeanMotion": 1.70474367,
            "RevolutionNumber": "5529"
        }
    ]
}